CCSDS_OMM_VERS = 2.0
CREATION_DATE  = 
ORIGINATOR     = 

OBJECT_NAME    = UNKNOWN
OBJECT_ID      = 
CENTER_NAME    = EARTH
REF_FRAME      = TEME
TIME_SYSTEM    = UTC
MEAN_ELEMENT_THEORY = SGP/SGP4

EPOCH          = 2026-02-15T05:43:17.515488
MEAN_MOTION    = 12.37901833
ECCENTRICITY   = .0249137
INCLINATION    = 103.8090
RA_OF_ASC_NODE = 331.1887
ARG_OF_PERICENTER = 121.9079
MEAN_ANOMALY   = 240.6470

EPHEMERIS_TYPE = 0
CLASSIFICATION_TYPE = U
NORAD_CAT_ID   = 81812
ELEMENT_SET_NO = 999
REV_AT_EPOCH   = 54854
BSTAR          = .43723E-1
MEAN_MOTION_DOT = .6275E-4
MEAN_MOTION_DDOT = 0

CCSDS_OMM_VERS = 2.0
CREATION_DATE  = 
ORIGINATOR     = 

OBJECT_NAME    = UNKNOWN
OBJECT_ID      = 
CENTER_NAME    = EARTH
REF_FRAME      = TEME
TIME_SYSTEM    = UTC
MEAN_ELEMENT_THEORY = SGP/SGP4

EPOCH          = 2026-02-16T14:16:12.241632
MEAN_MOTION    = 13.89687384
ECCENTRICITY   = .0175451
INCLINATION    = 66.2387
RA_OF_ASC_NODE = 131.9148
ARG_OF_PERICENTER = 210.1656
MEAN_ANOMALY   = 148.9226

EPHEMERIS_TYPE = 0
CLASSIFICATION_TYPE = U
NORAD_CAT_ID   = 81816
ELEMENT_SET_NO = 999
REV_AT_EPOCH   = 61849
BSTAR          = .14327E-2
MEAN_MOTION_DOT = .191E-4
MEAN_MOTION_DDOT = 0

CCSDS_OMM_VERS = 2.0
CREATION_DATE  = 
ORIGINATOR     = 

OBJECT_NAME    = UNKNOWN
OBJECT_ID      = 
CENTER_NAME    = EARTH
REF_FRAME      = TEME
TIME_SYSTEM    = UTC
MEAN_ELEMENT_THEORY = SGP/SGP4

EPOCH          = 2026-02-15T04:53:28.757184
MEAN_MOTION    = 12.47806037
ECCENTRICITY   = .0030373
INCLINATION    = 102.1672
RA_OF_ASC_NODE = 149.2677
ARG_OF_PERICENTER = 352.4780
MEAN_ANOMALY   = 7.5828

EPHEMERIS_TYPE = 0
CLASSIFICATION_TYPE = U
NORAD_CAT_ID   = 81819
ELEMENT_SET_NO = 999
REV_AT_EPOCH   = 55605
BSTAR          = .66582E-2
MEAN_MOTION_DOT = .939E-5
MEAN_MOTION_DDOT = 0

CCSDS_OMM_VERS = 2.0
CREATION_DATE  = 
ORIGINATOR     = 

OBJECT_NAME    = UNKNOWN
OBJECT_ID      = 
CENTER_NAME    = EARTH
REF_FRAME      = TEME
TIME_SYSTEM    = UTC
MEAN_ELEMENT_THEORY = SGP/SGP4

EPOCH          = 2026-02-17T06:48:29.235744
MEAN_MOTION    = 14.36253779
ECCENTRICITY   = .0046826
INCLINATION    = 65.8426
RA_OF_ASC_NODE = 155.4995
ARG_OF_PERICENTER = 299.7533
MEAN_ANOMALY   = 59.8906

EPHEMERIS_TYPE = 0
CLASSIFICATION_TYPE = U
NORAD_CAT_ID   = 81824
ELEMENT_SET_NO = 999
REV_AT_EPOCH   = 63414
BSTAR          = .18172E-2
MEAN_MOTION_DOT = .5294E-4
MEAN_MOTION_DDOT = 0

CCSDS_OMM_VERS = 2.0
CREATION_DATE  = 
ORIGINATOR     = 

OBJECT_NAME    = UNKNOWN
OBJECT_ID      = 
CENTER_NAME    = EARTH
REF_FRAME      = TEME
TIME_SYSTEM    = UTC
MEAN_ELEMENT_THEORY = SGP/SGP4

EPOCH          = 2026-02-16T07:33:10.753056
MEAN_MOTION    = 12.93754278
ECCENTRICITY   = .0024904
INCLINATION    = 90.2455
RA_OF_ASC_NODE = 4.3434
ARG_OF_PERICENTER = 209.7249
MEAN_ANOMALY   = 150.2456

EPHEMERIS_TYPE = 0
CLASSIFICATION_TYPE = U
NORAD_CAT_ID   = 81833
ELEMENT_SET_NO = 999
REV_AT_EPOCH   = 46099
BSTAR          = .95556E-3
MEAN_MOTION_DOT = .271E-5
MEAN_MOTION_DDOT = 0

CCSDS_OMM_VERS = 2.0
CREATION_DATE  = 
ORIGINATOR     = 

OBJECT_NAME    = UNKNOWN
OBJECT_ID      = 
CENTER_NAME    = EARTH
REF_FRAME      = TEME
TIME_SYSTEM    = UTC
MEAN_ELEMENT_THEORY = SGP/SGP4

EPOCH          = 2026-01-26T16:46:09.078816
MEAN_MOTION    = 14.57662167
ECCENTRICITY   = .0041952
INCLINATION    = 67.7595
RA_OF_ASC_NODE = 148.7226
ARG_OF_PERICENTER = 323.4616
MEAN_ANOMALY   = 103.9601

EPHEMERIS_TYPE = 0
CLASSIFICATION_TYPE = U
NORAD_CAT_ID   = 81838
ELEMENT_SET_NO = 999
REV_AT_EPOCH   = 63988
BSTAR          = .23584E-2
MEAN_MOTION_DOT = .10833E-3
MEAN_MOTION_DDOT = 0

CCSDS_OMM_VERS = 2.0
CREATION_DATE  = 
ORIGINATOR     = 

OBJECT_NAME    = UNKNOWN
OBJECT_ID      = 
CENTER_NAME    = EARTH
REF_FRAME      = TEME
TIME_SYSTEM    = UTC
MEAN_ELEMENT_THEORY = SGP/SGP4

EPOCH          = 2026-02-17T12:12:17.908704
MEAN_MOTION    = 14.33592226
ECCENTRICITY   = .00606
INCLINATION    = 82.9092
RA_OF_ASC_NODE = 227.7942
ARG_OF_PERICENTER = 307.8739
MEAN_ANOMALY   = 51.6976

EPHEMERIS_TYPE = 0
CLASSIFICATION_TYPE = U
NORAD_CAT_ID   = 81844
ELEMENT_SET_NO = 999
REV_AT_EPOCH   = 63245
BSTAR          = .23272E-2
MEAN_MOTION_DOT = .6594E-4
MEAN_MOTION_DDOT = 0

CCSDS_OMM_VERS = 2.0
CREATION_DATE  = 
ORIGINATOR     = 

OBJECT_NAME    = UNKNOWN
OBJECT_ID      = 
CENTER_NAME    = EARTH
REF_FRAME      = TEME
TIME_SYSTEM    = UTC
MEAN_ELEMENT_THEORY = SGP/SGP4

EPOCH          = 2026-02-09T11:33:59.876928
MEAN_MOTION    = 14.85561083
ECCENTRICITY   = .0088339
INCLINATION    = 97.6768
RA_OF_ASC_NODE = 230.3923
ARG_OF_PERICENTER = 111.3986
MEAN_ANOMALY   = 279.6775

EPHEMERIS_TYPE = 0
CLASSIFICATION_TYPE = U
NORAD_CAT_ID   = 81845
ELEMENT_SET_NO = 999
REV_AT_EPOCH   = 65824
BSTAR          = .41411E-3
MEAN_MOTION_DOT = .3786E-4
MEAN_MOTION_DDOT = 0

CCSDS_OMM_VERS = 2.0
CREATION_DATE  = 
ORIGINATOR     = 

OBJECT_NAME    = UNKNOWN
OBJECT_ID      = 
CENTER_NAME    = EARTH
REF_FRAME      = TEME
TIME_SYSTEM    = UTC
MEAN_ELEMENT_THEORY = SGP/SGP4

EPOCH          = 2026-02-02T03:08:14.204544
MEAN_MOTION    = 13.32666652
ECCENTRICITY   = .0766542
INCLINATION    = 65.6733
RA_OF_ASC_NODE = 306.7363
ARG_OF_PERICENTER = 350.9348
MEAN_ANOMALY   = 7.8479

EPHEMERIS_TYPE = 0
CLASSIFICATION_TYPE = U
NORAD_CAT_ID   = 81864
ELEMENT_SET_NO = 999
REV_AT_EPOCH   = 55768
BSTAR          = .94023E-3
MEAN_MOTION_DOT = .244E-4
MEAN_MOTION_DDOT = 0

CCSDS_OMM_VERS = 2.0
CREATION_DATE  = 
ORIGINATOR     = 

OBJECT_NAME    = UNKNOWN
OBJECT_ID      = 
CENTER_NAME    = EARTH
REF_FRAME      = TEME
TIME_SYSTEM    = UTC
MEAN_ELEMENT_THEORY = SGP/SGP4

EPOCH          = 2026-02-17T06:05:23.790912
MEAN_MOTION    = 13.88228448
ECCENTRICITY   = .0060645
INCLINATION    = 82.8080
RA_OF_ASC_NODE = 337.3273
ARG_OF_PERICENTER = 173.9444
MEAN_ANOMALY   = 340.0907

EPHEMERIS_TYPE = 0
CLASSIFICATION_TYPE = U
NORAD_CAT_ID   = 81865
ELEMENT_SET_NO = 999
REV_AT_EPOCH   = 61777
BSTAR          = .92794E-3
MEAN_MOTION_DOT = .1141E-4
MEAN_MOTION_DDOT = 0

CCSDS_OMM_VERS = 2.0
CREATION_DATE  = 
ORIGINATOR     = 

OBJECT_NAME    = UNKNOWN
OBJECT_ID      = 
CENTER_NAME    = EARTH
REF_FRAME      = TEME
TIME_SYSTEM    = UTC
MEAN_ELEMENT_THEORY = SGP/SGP4

EPOCH          = 2026-02-16T09:58:26.799744
MEAN_MOTION    = 13.76863765
ECCENTRICITY   = .0021506
INCLINATION    = 100.0540
RA_OF_ASC_NODE = 39.3620
ARG_OF_PERICENTER = 99.4520
MEAN_ANOMALY   = 260.9060

EPHEMERIS_TYPE = 0
CLASSIFICATION_TYPE = U
NORAD_CAT_ID   = 81893
ELEMENT_SET_NO = 999
REV_AT_EPOCH   = 61311
BSTAR          = .11128E-2
MEAN_MOTION_DOT = .1049E-4
MEAN_MOTION_DDOT = 0

CCSDS_OMM_VERS = 2.0
CREATION_DATE  = 
ORIGINATOR     = 

OBJECT_NAME    = UNKNOWN
OBJECT_ID      = 
CENTER_NAME    = EARTH
REF_FRAME      = TEME
TIME_SYSTEM    = UTC
MEAN_ELEMENT_THEORY = SGP/SGP4

EPOCH          = 2026-02-16T04:37:49.790496
MEAN_MOTION    = 13.20403315
ECCENTRICITY   = .0173098
INCLINATION    = 102.4113
RA_OF_ASC_NODE = 165.7935
ARG_OF_PERICENTER = 77.5841
MEAN_ANOMALY   = 284.4578

EPHEMERIS_TYPE = 0
CLASSIFICATION_TYPE = U
NORAD_CAT_ID   = 81899
ELEMENT_SET_NO = 999
REV_AT_EPOCH   = 58762
BSTAR          = .34157E-2
MEAN_MOTION_DOT = .1438E-4
MEAN_MOTION_DDOT = 0

